NORAD_CAT_ID,OBJECT_NAME,OBJECT_TYPE,EPOCH,MEAN_MOTION,ECCENTRICITY,INCLINATION,RA_OF_ASC_NODE,ARG_OF_PERICENTER,MEAN_ANOMALY,BSTAR,MEAN_MOTION_DOT,MEAN_MOTION_DDOT,TLE_LINE0,TLE_LINE1,TLE_LINE2,SEMIMAJOR_AXIS,PERIOD,APOGEE,PERIGEE,DECAYED
54068.0,STARLINK-5222,PAYLOAD,2023-06-30 23:57:57,15.08837596,0.0001083,53.2166,75.4035,87.494,272.6176,2.0877e-05,4.4e-07,0.0,0 STARLINK-5222,1 54068U 22136T   23181.99858342  .00000044  00000-0  20877-4 0  9996,2 54068  53.2166  75.4035 0001083  87.4940 272.6176 15.08837596 38976,6917.888,95.438,540.502,539.004,0.0
54068.0,STARLINK-5222,PAYLOAD,2023-07-02 01:24:07,15.08843434,0.0001066,53.217,70.6466,97.8393,262.272,-2.0384e-05,-6.12e-06,0.0,0 STARLINK-5222,1 54068U 22136T   23183.05842347 -.00000612  00000-0 -20384-4 0  9999,2 54068  53.2170  70.6466 0001066  97.8393 262.2720 15.08843434 39131,6917.87,95.437,540.472,538.997,0.0
54068.0,STARLINK-5222,PAYLOAD,2023-07-04 21:45:43,15.08839089,0.0001074,53.2168,57.858,89.1173,270.9943,-2.3311e-05,-6.59e-06,0.0,0 STARLINK-5222,1 54068U 22136T   23185.90674974 -.00000659  00000-0 -23311-4 0  9998,2 54068  53.2168  57.8580 0001074  89.1173 270.9943 15.08839089 39562,6917.883,95.438,540.491,539.005,0.0
54068.0,STARLINK-5222,PAYLOAD,2023-07-06 00:47:16,15.08844317,0.0001199,53.2172,52.8029,84.7391,275.3738,3.401e-05,2.54e-06,0.0,0 STARLINK-5222,1 54068U 22136T   23187.03282486  .00000254  00000-0  34010-4 0  9994,2 54068  53.2172  52.8029 0001199  84.7391 275.3738 15.08844317 39731,6917.867,95.437,540.562,538.903,0.0
54068.0,STARLINK-5222,PAYLOAD,2023-07-07 02:13:25,15.08846918,0.0001197,53.2174,48.046,92.5293,267.5836,0.00011527,1.547e-05,0.0,0 STARLINK-5222,1 54068U 22136T   23188.09266048  .00001547  00000-0  11527-3 0  9990,2 54068  53.2174  48.0460 0001197  92.5293 267.5836 15.08846918 39893,6917.859,95.437,540.552,538.896,0.0
54068.0,STARLINK-5222,PAYLOAD,2023-07-07 19:42:40,15.08840943,0.0001366,53.2168,44.7715,105.4703,254.644,1.1842e-05,-9.9e-07,0.0,0 STARLINK-5222,1 54068U 22136T   23188.82130707 -.00000099  00000-0  11842-4 0  9996,2 54068  53.2168  44.7715 0001366 105.4703 254.6440 15.08840943 40005,6917.878,95.437,540.687,538.798,0.0
54068.0,STARLINK-5222,PAYLOAD,2023-07-08 06:50:23,15.08833017,0.0001208,53.2173,42.6936,94.8387,265.2743,-3.0763e-05,-7.77e-06,0.0,0 STARLINK-5222,1 54068U 22136T   23189.28499390 -.00000777  00000-0 -30763-4 0  9990,2 54068  53.2173  42.6936 0001208  94.8387 265.2743 15.08833017 40072,6917.902,95.438,540.602,538.931,0.0
54068.0,STARLINK-5222,PAYLOAD,2023-07-09 01:55:00,15.0884138,0.0001103,53.2176,39.1251,92.4346,267.6772,2.2533e-05,7.1e-07,0.0,0 STARLINK-5222,1 54068U 22136T   23190.07986905  .00000071  00000-0  22533-4 0  9993,2 54068  53.2176  39.1251 0001103  92.4346 267.6772 15.08841380 40192,6917.876,95.437,540.504,538.978,0.0
54068.0,STARLINK-5222,PAYLOAD,2023-07-09 17:48:52,15.08835063,0.0001003,53.2174,36.152,96.6379,263.4727,1.6169e-05,-3e-07,0.0,0 STARLINK-5222,1 54068U 22136T   23190.74227700 -.00000030  00000-0  16169-4 0  9992,2 54068  53.2174  36.1520 0001003  96.6379 263.4727 15.08835063 40293,6917.895,95.438,540.454,539.067,0.0
54068.0,STARLINK-5222,PAYLOAD,2023-07-10 00:10:24,15.0884182,0.000102,53.2176,34.9621,94.8637,265.2471,6.3816e-05,7.28e-06,0.0,0 STARLINK-5222,1 54068U 22136T   23191.00723178  .00000728  00000-0  63816-4 0  9996,2 54068  53.2176  34.9621 0001020  94.8637 265.2471 15.08841820 40338,6917.875,95.437,540.445,539.034,0.0
54068.0,STARLINK-5222,PAYLOAD,2023-07-11 19:05:49,15.08841692,0.00011,53.2176,26.9337,89.6425,270.4693,9.4186e-05,1.212e-05,0.0,0 STARLINK-5222,1 54068U 22136T   23192.79571311  .00001212  00000-0  94186-4 0  9996,2 54068  53.2176  26.9337 0001100  89.6425 270.4693 15.08841692 40600,6917.875,95.437,540.501,538.979,0.0
54068.0,STARLINK-5222,PAYLOAD,2023-07-13 15:36:37,15.08842536,0.0001099,53.2167,18.605,92.3716,267.7402,1.3408e-05,-7.4e-07,0.0,0 STARLINK-5222,1 54068U 22136T   23194.65043389 -.00000074  00000-0  13408-4 0  9996,2 54068  53.2167  18.6050 0001099  92.3716 267.7402 15.08842536 40886,6917.873,95.437,540.498,538.977,0.0
54068.0,STARLINK-5222,PAYLOAD,2023-07-14 18:38:11,15.08837698,0.0001009,53.218,13.5517,89.6606,270.4502,9.2014e-05,1.177e-05,0.0,0 STARLINK-5222,1 54068U 22136T   23195.77651718  .00001177  00000-0  92014-4 0  9995,2 54068  53.2180  13.5517 0001009  89.6606 270.4502 15.08837698 41056,6917.887,95.438,540.45,539.054,0.0
54068.0,STARLINK-5222,PAYLOAD,2023-07-16 04:01:18,15.08829316,0.0001596,53.2187,7.3055,86.113,274.0044,-3.6221e-05,-8.64e-06,0.0,0 STARLINK-5222,1 54068U 22136T   23197.16756978 -.00000864  00000-0 -36221-4 0  9996,2 54068  53.2187   7.3055 0001596  86.1130 274.0044 15.08829316 41268,6917.913,95.438,540.882,538.674,0.0
54068.0,STARLINK-5222,PAYLOAD,2023-07-16 18:19:45,15.08840577,0.0001058,53.2183,4.6305,87.2392,272.8721,8.6457e-05,1.088e-05,0.0,0 STARLINK-5222,1 54068U 22136T   23197.76372061  .00001088  00000-0  86457-4 0  9992,2 54068  53.2183   4.6305 0001058  87.2392 272.8721 15.08840577 41357,6917.879,95.438,540.476,539.012,0.0
54068.0,STARLINK-5222,PAYLOAD,2023-07-17 19:45:55,15.08852301,0.000117,53.2177,359.8714,93.5953,266.5173,0.00025721,3.809e-05,0.0,0 STARLINK-5222,1 54068U 22136T   23198.82355506  .00003809  00000-0  25721-3 0  9994,2 54068  53.2177 359.8714 0001170  93.5953 266.5173 15.08852301 41514,6917.843,95.437,540.517,538.898,0.0
54068.0,STARLINK-5222,PAYLOAD,2023-07-18 14:50:32,15.08851,0.0001139,53.2172,356.3039,95.223,264.8892,0.00031772,4.774e-05,0.0,0 STARLINK-5222,1 54068U 22136T   23199.61843548  .00004774  00000-0  31772-3 0  9995,2 54068  53.2172 356.3039 0001139  95.2230 264.8892 15.08851000 41630,6917.847,95.437,540.5,538.924,0.0
54068.0,STARLINK-5222,PAYLOAD,2023-07-18 19:36:42,15.08857657,0.0001138,53.2167,355.4112,93.6943,266.4179,0.00065173,0.00010105,0.0,0 STARLINK-5222,1 54068U 22136T   23199.81715328  .00010105  00000-0  65173-3 0  9998,2 54068  53.2167 355.4112 0001138  93.6943 266.4179 15.08857657 41661,6917.826,95.436,540.479,538.904,0.0
54068.0,STARLINK-5222,PAYLOAD,2023-07-19 17:52:07,15.08829181,0.0001125,53.2175,351.2482,88.1,272.0121,0.0001872,2.692e-05,0.0,0 STARLINK-5222,1 54068U 22136T   23200.74452600  .00002692  00000-0  18720-3 0  9992,2 54068  53.2175 351.2482 0001125  88.1000 272.0121 15.08829181 41800,6917.913,95.438,540.557,539.0,0.0
54068.0,STARLINK-5222,PAYLOAD,2023-07-20 19:18:16,15.08865418,0.0001065,53.2164,346.4903,69.6885,290.4221,0.0011536,0.00018132,0.0,0 STARLINK-5222,1 54068U 22136T   23201.80436245  .00018132  00000-0  11536-2 0  9990,2 54068  53.2164 346.4903 0001065  69.6885 290.4221 15.08865418 41965,6917.803,95.436,540.404,538.931,0.0
54068.0,STARLINK-5222,PAYLOAD,2023-07-21 09:36:45,15.08857024,0.0001189,53.2169,343.8149,66.4869,293.6248,0.00057111,8.817e-05,0.0,0 STARLINK-5222,1 54068U 22136T   23202.40052192  .00008817  00000-0  57111-3 0  9991,2 54068  53.2169 343.8149 0001189  66.4869 293.6248 15.08857024 42056,6917.828,95.436,540.516,538.871,0.0
54068.0,STARLINK-5222,PAYLOAD,2023-07-23 18:50:38,15.08849327,0.0001208,53.2175,333.1104,82.6238,277.4891,0.0006844,0.00010624,0.0,0 STARLINK-5222,1 54068U 22136T   23204.78516571  .00010624  00000-0  68440-3 0  9996,2 54068  53.2175 333.1104 0001208  82.6238 277.4891 15.08849327 41935,6917.852,95.437,540.553,538.881,0.0
54068.0,STARLINK-5222,PAYLOAD,2023-07-25 12:10:40,15.08837817,0.0001208,53.2159,325.3785,98.5818,261.5311,2.828e-05,1.62e-06,0.0,0 STARLINK-5222,1 54068U 22136T   23206.50740965  .00000162  00000-0  28280-4 0  9999,2 54068  53.2159 325.3785 0001208  98.5818 261.5311 15.08837817 42196,6917.887,95.438,540.588,538.916,0.0
54068.0,STARLINK-5222,PAYLOAD,2023-07-26 10:26:03,15.08848133,0.0001071,53.2167,321.2158,100.6711,259.4402,0.00029316,4.382e-05,0.0,0 STARLINK-5222,1 54068U 22136T   23207.43476794  .00004382  00000-0  29316-3 0  9996,2 54068  53.2167 321.2158 0001071 100.6711 259.4402 15.08848133 42335,6917.856,95.437,540.461,538.98,0.0
54068.0,STARLINK-5222,PAYLOAD,2023-07-26 16:47:36,15.0885632,0.000109,53.2161,320.0263,93.527,266.5846,0.00064006,9.918e-05,0.0,0 STARLINK-5222,1 54068U 22136T   23207.69972597  .00009918  00000-0  64006-3 0  9991,2 54068  53.2161 320.0263 0001090  93.5270 266.5846 15.08856320 42859,6917.831,95.437,540.45,538.941,0.0
54068.0,STARLINK-5222,PAYLOAD,2023-07-27 00:44:31,15.08842349,0.0001553,53.2143,318.5446,72.6432,287.473,0.0002975,4.45e-05,0.0,0 STARLINK-5222,1 54068U 22136T   23208.03092418  .00004450  00000-0  29750-3 0  9998,2 54068  53.2143 318.5446 0001553  72.6432 287.4730 15.08842349 42902,6917.873,95.437,540.813,538.664,0.0
54068.0,STARLINK-5222,PAYLOAD,2023-07-27 07:06:04,15.08842335,0.000129,53.2165,317.3509,90.0551,270.0589,0.00013341,1.836e-05,0.0,0 STARLINK-5222,1 54068U 22136T   23208.29588887  .00001836  00000-0  13341-3 0  9990,2 54068  53.2165 317.3509 0001290  90.0551 270.0589 15.08842335 42946,6917.873,95.437,540.631,538.846,0.0
54068.0,STARLINK-5222,PAYLOAD,2023-07-28 18:04:34,15.08840504,0.0001124,53.2162,310.8092,85.0916,275.0204,9.4449e-05,1.216e-05,0.0,0 STARLINK-5222,1 54068U 22136T   23209.75317219  .00001216  00000-0  94449-4 0  9992,2 54068  53.2162 310.8092 0001124  85.0916 275.0204 15.08840504 43163,6917.879,95.438,540.521,538.966,0.0
54068.0,STARLINK-5222,PAYLOAD,2023-07-29 09:58:23,15.08870679,0.0001628,53.2165,307.8375,57.8678,302.2472,-0.00067638,-0.00011046,0.0,0 STARLINK-5222,1 54068U 22136T   23210.41555522 -.00011046  00000-0 -67638-3 0  9991,2 54068  53.2165 307.8375 0001628  57.8678 302.2472 15.08870679 43264,6917.787,95.436,540.778,538.525,0.0
54068.0,STARLINK-5222,PAYLOAD,2023-07-29 17:55:20,15.08856986,0.0001295,53.2162,306.3475,81.0314,279.0825,0.00039506,6.008e-05,0.0,0 STARLINK-5222,1 54068U 22136T   23210.74676519  .00006008  00000-0  39506-3 0  9990,2 54068  53.2162 306.3475 0001295  81.0314 279.0825 15.08856986 43316,6917.828,95.436,540.589,538.798,0.0
